CAS-2T & KS-1Q          
1 41847U 16066G   20312.39649121  .00000132  00000-0  29838-4 0  9996
2 41847  98.6362   4.2250 0365984 162.7353 198.6675 14.38107694209966
NAYIF-1 (EO-88)         
1 42017U 17008BX  20312.43374140  .00002539  00000-0  98668-4 0  9994
2 42017  97.3451  17.8255 0006557 161.9615 198.1858 15.26947789207361
ZHUHAI-1 02 (CAS-4B)    
1 42759U 17034B   20312.52025571  .00000390  00000-0  37025-4 0  9990
2 42759  43.0192 320.9486 0010480 219.4689 277.1589 15.09936486187592
ZHUHAI-1 01 (CAS-4A)    
1 42761U 17034D   20312.52342962  .00000359  00000-0  35082-4 0  9995
2 42761  43.0197 320.1350 0010908 220.5352 277.2299 15.10015661187591
MAX VALIER SAT          
1 42778U 17036P   20312.40034227  .00001371  00000-0  61338-4 0  9992
2 42778  97.2880   1.9650 0010760 234.3373 125.6863 15.22892831187484
RADFXSAT (FOX-1B)       
1 43017U 17073E   20312.27464526  .00001135  00000-0  93809-4 0  9990
2 43017  97.7152 218.9469 0255278 305.1626  52.5909 14.79124519160278
FOX-1D (AO-92)          
1 43137U 18004AC  20312.46543703  .00001576  00000-0  67180-4 0  9996
2 43137  97.4326  22.5733 0007455 273.6232  86.4153 15.24427158156838
DIWATA-2B               
1 43678U 18084H   20312.55855110  .00000096  00000-0  15325-4 0  9992
2 43678  97.9006  71.0924 0011272  68.0803 292.1642 14.91665702110359
ES'HAIL 2               
1 43700U 18090A   20312.38799267  .00000152  00000-0  00000+0 0  9998
2 43700   0.0169 266.8808 0001872 342.3614 323.3061  1.00270122  7382
FOX-1CLIFF (AO-95)      
1 43770U 18099N   20312.47052508  .00000712  00000-0  70028-4 0  9998
2 43770  97.6926  21.2597 0015990  81.3606 278.9426 14.95084645105286
ITASAT 1                
1 43786U 18099AE  20312.23486201  .00000146  00000-0  18364-4 0  9996
2 43786  97.6943  21.5500 0016638  75.4686 284.8379 14.95413112105278
JY1SAT (JO-97)          
1 43803U 18099AX  20312.43245631  .00000308  00000-0  32864-4 0  9999
2 43803  97.6905  21.5311 0016605  75.1014 285.2045 14.95609739105303
PSAT2 (NO-104)          
1 44354U 19036R   20312.25469895  .00017861  00000-0  25568-3 0  9997
2 44354  28.5272 160.9900 0353433  39.0679 323.4892 15.06284364 75358
BRICSAT2 (NO-103)       
1 44355U 19036S   20311.90678963  .00041045  00000-0  54352-3 0  9991
2 44355  28.5265 145.3853 0321907  64.3769 298.9722 15.14381612 75482
JAISAT-1                
1 44419U 19038F   20312.41877668  .00001545  00000-0  90734-4 0  9990
2 44419  97.5578 272.4971 0021557   2.5340 357.5996 15.13045572 74212
DUCHIFAT-3              
1 44854U 19089C   20312.43091436  .00000539  00000-0  49845-4 0  9991
2 44854  36.9678 333.3222 0007089 141.3245 218.7995 14.99184415 49761
RS-44 & BREEZE-KM R/B   
1 44909U 19096E   20312.35391595  .00000029  00000-0  78696-4 0  9990
2 44909  82.5206 260.3488 0216259 252.3622 105.3759 12.79708426 40469
ORBITAL FACTORY 2 (OF-2)
1 45113U 19071C   20312.45267145  .00003505  00000-0  11616-3 0  9995
2 45113  51.6436  32.4928 0012466 210.9183 149.1066 15.33980884 43072
HUSKYSAT-1              
1 45119U 19071J   20312.41265216  .00002785  00000-0  94182-4 0  9993
2 45119  51.6438  32.2251 0011774 207.2099 152.8267 15.34152710 43066
SALSAT                  
1 46495U 20068K   20312.55228039  .00000568  00000-0  46360-4 0  9998
2 46495  97.6718 245.6695 0018462 101.7848 258.5447 15.03250802  5999
